{
  "type": "FeatureCollection",
  "features": [
    {
      "type": "Feature",
      "properties": {
        "norad_id": 34010,
        "name": "COSMOS 2251 DEB",
        "group": "cosmos-2251-debris",
        "lat": 52.46970404465439,
        "lon": 94.48729177909105,
        "alt_km": 508.3930530699399,
        "timestamp": "2025-12-06T11:28:11.455619+00:00",
        "meta_object_name": "COSMOS 2251 DEB",
        "meta_object_id": "1993-036GV",
        "meta_epoch": "2025-12-05T22:15:42.409152",
        "meta_mean_motion": 15.16901944,
        "meta_eccentricity": 0.00044942,
        "meta_inclination": 74.0003,
        "meta_ra_of_asc_node": 297.5714,
        "meta_arg_of_pericenter": 58.3014,
        "meta_mean_anomaly": 301.8619,
        "meta_ephemeris_type": 0,
        "meta_classification_type": "U",
        "meta_norad_cat_id": 34010,
        "meta_element_set_no": 999,
        "meta_rev_at_epoch": 89182,
        "meta_bstar": 0.006070092,
        "meta_mean_motion_dot": 0.00121681,
        "meta_mean_motion_ddot": 0,
        "tle_line1": "1 34010U 93036GV  25339.92757418  .00121681  00000+0  60701-2 0  9998",
        "tle_line2": "2 34010  74.0003 297.5714 0004494  58.3014 301.8619 15.16901944891827"
      },
      "geometry": {
        "type": "Point",
        "coordinates": [
          94.48729177909105,
          52.46970404465439
        ]
      }
    },
    {
      "type": "Feature",
      "properties": {
        "norad_id": 34011,
        "name": "COSMOS 2251 DEB",
        "group": "cosmos-2251-debris",
        "lat": 8.203780949895982,
        "lon": 159.40084964885747,
        "alt_km": 760.2250508930647,
        "timestamp": "2025-12-06T11:28:11.455629+00:00",
        "meta_object_name": "COSMOS 2251 DEB",
        "meta_object_id": "1993-036GW",
        "meta_epoch": "2025-12-05T18:01:40.043424",
        "meta_mean_motion": 14.41718235,
        "meta_eccentricity": 0.00352363,
        "meta_inclination": 74.0147,
        "meta_ra_of_asc_node": 343.1172,
        "meta_arg_of_pericenter": 69.0181,
        "meta_mean_anomaly": 291.4739,
        "meta_ephemeris_type": 0,
        "meta_classification_type": "U",
        "meta_norad_cat_id": 34011,
        "meta_element_set_no": 999,
        "meta_rev_at_epoch": 87815,
        "meta_bstar": 0.0014463284,
        "meta_mean_motion_dot": 4.73e-05,
        "meta_mean_motion_ddot": 0,
        "tle_line1": "1 34011U 93036GW  25339.75115791  .00004730  00000+0  14463-2 0  9991",
        "tle_line2": "2 34011  74.0147 343.1172 0035236  69.0181 291.4739 14.41718235878159"
      },
      "geometry": {
        "type": "Point",
        "coordinates": [
          159.40084964885747,
          8.203780949895982
        ]
      }
    },
    {
      "type": "Feature",
      "properties": {
        "norad_id": 34014,
        "name": "COSMOS 2251 DEB",
        "group": "cosmos-2251-debris",
        "lat": 53.825668776710415,
        "lon": 89.86252235530434,
        "alt_km": 628.8451250341395,
        "timestamp": "2025-12-06T11:28:11.455639+00:00",
        "meta_object_name": "COSMOS 2251 DEB",
        "meta_object_id": "1993-036GZ",
        "meta_epoch": "2025-12-05T23:49:20.117280",
        "meta_mean_motion": 14.73002392,
        "meta_eccentricity": 0.0036842,
        "meta_inclination": 74.0177,
        "meta_ra_of_asc_node": 293.8852,
        "meta_arg_of_pericenter": 75.3542,
        "meta_mean_anomaly": 354.6809,
        "meta_ephemeris_type": 0,
        "meta_classification_type": "U",
        "meta_norad_cat_id": 34014,
        "meta_element_set_no": 999,
        "meta_rev_at_epoch": 89204,
        "meta_bstar": 0.0016342953,
        "meta_mean_motion_dot": 0.00010596,
        "meta_mean_motion_ddot": 0,
        "tle_line1": "1 34014U 93036GZ  25339.99259395  .00010596  00000+0  16343-2 0  9995",
        "tle_line2": "2 34014  74.0177 293.8852 0036842  75.3542 354.6809 14.73002392892045"
      },
      "geometry": {
        "type": "Point",
        "coordinates": [
          89.86252235530434,
          53.825668776710415
        ]
      }
    },
    {
      "type": "Feature",
      "properties": {
        "norad_id": 34015,
        "name": "COSMOS 2251 DEB",
        "group": "cosmos-2251-debris",
        "lat": 10.592391620655444,
        "lon": -11.685773166526511,
        "alt_km": 696.3981738207622,
        "timestamp": "2025-12-06T11:28:11.455649+00:00",
        "meta_object_name": "COSMOS 2251 DEB",
        "meta_object_id": "1993-036HA",
        "meta_epoch": "2025-12-05T23:52:55.632576",
        "meta_mean_motion": 14.60117524,
        "meta_eccentricity": 0.00211347,
        "meta_inclination": 74.023,
        "meta_ra_of_asc_node": 172.3073,
        "meta_arg_of_pericenter": 269.5486,
        "meta_mean_anomaly": 242.6723,
        "meta_ephemeris_type": 0,
        "meta_classification_type": "U",
        "meta_norad_cat_id": 34015,
        "meta_element_set_no": 999,
        "meta_rev_at_epoch": 88432,
        "meta_bstar": 0.0018965944,
        "meta_mean_motion_dot": 9.136e-05,
        "meta_mean_motion_ddot": 0,
        "tle_line1": "1 34015U 93036HA  25339.99508834  .00009136  00000+0  18966-2 0  9992",
        "tle_line2": "2 34015  74.0230 172.3073 0021134 269.5486 242.6723 14.60117524884327"
      },
      "geometry": {
        "type": "Point",
        "coordinates": [
          -11.685773166526511,
          10.592391620655444
        ]
      }
    },
    {
      "type": "Feature",
      "properties": {
        "norad_id": 34018,
        "name": "COSMOS 2251 DEB",
        "group": "cosmos-2251-debris",
        "lat": -60.96738543631566,
        "lon": 71.2996750154442,
        "alt_km": 1141.3245974529991,
        "timestamp": "2025-12-06T11:28:11.455660+00:00",
        "meta_object_name": "COSMOS 2251 DEB",
        "meta_object_id": "1993-036HD",
        "meta_epoch": "2025-12-05T19:02:10.046976",
        "meta_mean_motion": 13.81056103,
        "meta_eccentricity": 0.02641732,
        "meta_inclination": 73.877,
        "meta_ra_of_asc_node": 103.8669,
        "meta_arg_of_pericenter": 141.0605,
        "meta_mean_anomaly": 349.0431,
        "meta_ephemeris_type": 0,
        "meta_classification_type": "U",
        "meta_norad_cat_id": 34018,
        "meta_element_set_no": 999,
        "meta_rev_at_epoch": 84561,
        "meta_bstar": 0.0010646474,
        "meta_mean_motion_dot": 1.444e-05,
        "meta_mean_motion_ddot": 0,
        "tle_line1": "1 34018U 93036HD  25339.79317184  .00001444  00000+0  10646-2 0  9990",
        "tle_line2": "2 34018  73.8770 103.8669 0264173 141.0605 349.0431 13.81056103845619"
      },
      "geometry": {
        "type": "Point",
        "coordinates": [
          71.2996750154442,
          -60.96738543631566
        ]
      }
    },
    {
      "type": "Feature",
      "properties": {
        "norad_id": 34019,
        "name": "COSMOS 2251 DEB",
        "group": "cosmos-2251-debris",
        "lat": -48.61389348833595,
        "lon": 43.19465198683221,
        "alt_km": 765.6186313499502,
        "timestamp": "2025-12-06T11:28:11.455670+00:00",
        "meta_object_name": "COSMOS 2251 DEB",
        "meta_object_id": "1993-036HE",
        "meta_epoch": "2025-12-05T22:51:11.180736",
        "meta_mean_motion": 14.33883521,
        "meta_eccentricity": 0.00627385,
        "meta_inclination": 73.9552,
        "meta_ra_of_asc_node": 63.2221,
        "meta_arg_of_pericenter": 245.4346,
        "meta_mean_anomaly": 230.1064,
        "meta_ephemeris_type": 0,
        "meta_classification_type": "U",
        "meta_norad_cat_id": 34019,
        "meta_element_set_no": 999,
        "meta_rev_at_epoch": 87423,
        "meta_bstar": 0.0016976028,
        "meta_mean_motion_dot": 4.81e-05,
        "meta_mean_motion_ddot": 0,
        "tle_line1": "1 34019U 93036HE  25339.95221274  .00004810  00000+0  16976-2 0  9995",
        "tle_line2": "2 34019  73.9552  63.2221 0062738 245.4346 230.1064 14.33883521874238"
      },
      "geometry": {
        "type": "Point",
        "coordinates": [
          43.19465198683221,
          -48.61389348833595
        ]
      }
    },
    {
      "type": "Feature",
      "properties": {
        "norad_id": 34021,
        "name": "COSMOS 2251 DEB",
        "group": "cosmos-2251-debris",
        "lat": 44.49680138020402,
        "lon": 157.92235334397574,
        "alt_km": 729.3432084463111,
        "timestamp": "2025-12-06T11:28:11.455680+00:00",
        "meta_object_name": "COSMOS 2251 DEB",
        "meta_object_id": "1993-036HG",
        "meta_epoch": "2025-12-05T20:54:24.807744",
        "meta_mean_motion": 14.49907892,
        "meta_eccentricity": 0.00208491,
        "meta_inclination": 74.0352,
        "meta_ra_of_asc_node": 142.7244,
        "meta_arg_of_pericenter": 287.4543,
        "meta_mean_anomaly": 193.2616,
        "meta_ephemeris_type": 0,
        "meta_classification_type": "U",
        "meta_norad_cat_id": 34021,
        "meta_element_set_no": 999,
        "meta_rev_at_epoch": 88530,
        "meta_bstar": 0.00089470162,
        "meta_mean_motion_dot": 3.442e-05,
        "meta_mean_motion_ddot": 0,
        "tle_line1": "1 34021U 93036HG  25339.87112046  .00003442  00000+0  89470-3 0  9995",
        "tle_line2": "2 34021  74.0352 142.7244 0020849 287.4543 193.2616 14.49907892885308"
      },
      "geometry": {
        "type": "Point",
        "coordinates": [
          157.92235334397574,
          44.49680138020402
        ]
      }
    }
  ]
}